CTC1_L_00012016-03
1 58833U 26220UP  26070.40831019  .00000000  00000+0  00000-0 0  9999
2 58833  95.0000 180.0000 0000000   0.0000   0.0000 15.90815360    11
CTC1_L_00012016-04
1 58834U 22577BS  26070.40831019  .00000000  00000+0  00000-0 0  9991
2 58834  95.0000 180.0000 0000000   0.0000  90.0000 15.90815360    11
CTC1_L_00012017-01
1 58835U 24667SR  26070.40831019  .00000000  00000+0  00000-0 0  9994
2 58835  95.0000 192.0000 0000000   0.0000 192.0000 15.90815360    18
CTC1_L_00012017-02
1 58836U 26335US  26070.40831019  .00000000  00000+0  00000-0 0  9999
2 58836  95.0000 192.0000 0000000   0.0000 282.0000 15.90815360    19
CTC1_L_00012017-03
1 58837U 24990TQ  26070.40831019  .00000000  00000+0  00000-0 0  9995
2 58837  95.0000 192.0000 0000000   0.0000  12.0000 15.90815360    11
CTC1_L_00012017-04
1 58838U 22999NY  26070.40831019  .00000000  00000+0  00000-0 0  9993
2 58838  95.0000 192.0000 0000000   0.0000 102.0000 15.90815360    12
CTC1_L_00012018-01
1 58839U 26760HY  26070.40831019  .00000000  00000+0  00000-0 0  9994
2 58839  95.0000 204.0000 0000000   0.0000 204.0000 15.90815360    10
CTC1_L_00012018-02
1 58840U 23227KZ  26070.40831019  .00000000  00000+0  00000-0 0  9991
2 58840  95.0000 204.0000 0000000   0.0000 294.0000 15.90815360    11
CTC1_L_00012018-03
1 58841U 23173VI  26070.40831019  .00000000  00000+0  00000-0 0  9992
2 58841  95.0000 204.0000 0000000   0.0000  24.0000 15.90815360    13
CTC1_L_00012018-04
1 58842U 23797OT  26070.40831019  .00000000  00000+0  00000-0 0  9995
2 58842  95.0000 204.0000 0000000   0.0000 114.0000 15.90815360    14
CTC1_L_00012019-01
1 58843U 24286YU  26070.40831019  .00000000  00000+0  00000-0 0  9990
2 58843  95.0000 216.0000 0000000   0.0000 216.0000 15.90815360    11
CTC1_L_00012019-02
1 58844U 22766LV  26070.40831019  .00000000  00000+0  00000-0 0  9992
2 58844  95.0000 216.0000 0000000   0.0000 306.0000 15.90815360    12
CTC1_L_00012019-03
1 58845U 25961ZN  26070.40831019  .00000000  00000+0  00000-0 0  9993
2 58845  95.0000 216.0000 0000000   0.0000  36.0000 15.90815360    13
CTC1_L_00012019-04
1 58846U 26352RE  26070.40831019  .00000000  00000+0  00000-0 0  9999
2 58846  95.0000 216.0000 0000000   0.0000 126.0000 15.90815360    14
CTC1_L_00012020-01
1 58847U 24490FW  26070.40831019  .00000000  00000+0  00000-0 0  9991
2 58847  95.0000 228.0000 0000000   0.0000 228.0000 15.90815360    11
CTC1_L_00012020-02
1 58848U 26963HQ  26070.40831019  .00000000  00000+0  00000-0 0  9999
2 58848  95.0000 228.0000 0000000   0.0000 318.0000 15.90815360    12
CTC1_L_00012020-03
1 58849U 25859PD  26070.40831019  .00000000  00000+0  00000-0 0  9993
2 58849  95.0000 228.0000 0000000   0.0000  48.0000 15.90815360    13
CTC1_L_00012020-04
1 58850U 26777GU  26070.40831019  .00000000  00000+0  00000-0 0  9995
2 58850  95.0000 228.0000 0000000   0.0000 138.0000 15.90815360    15
CTC1_L_00012021-01
1 58851U 23662YE  26070.40831019  .00000000  00000+0  00000-0 0  9996
2 58851  95.0000 240.0000 0000000   0.0000 240.0000 15.90815360    14
CTC1_L_00012021-02
1 58852U 26429XM  26070.40831019  .00000000  00000+0  00000-0 0  9991
2 58852  95.0000 240.0000 0000000   0.0000 330.0000 15.90815360    15
CTC1_L_00012021-03
1 58853U 25503TT  26070.40831019  .00000000  00000+0  00000-0 0  9994
2 58853  95.0000 240.0000 0000000   0.0000  60.0000 15.90815360    16
CTC1_L_00012021-04
1 58854U 25300VP  26070.40831019  .00000000  00000+0  00000-0 0  9990
2 58854  95.0000 240.0000 0000000   0.0000 150.0000 15.90815360    17
CTC1_L_00012022-01
1 58855U 23363WD  26070.40831019  .00000000  00000+0  00000-0 0  9998
2 58855  95.0000 252.0000 0000000   0.0000 252.0000 15.90815360    14
CTC1_L_00012022-02
1 58856U 22487CW  26070.40831019  .00000000  00000+0  00000-0 0  9995
2 58856  95.0000 252.0000 0000000   0.0000 342.0000 15.90815360    15
CTC1_L_00012022-03
1 58857U 22640FQ  26070.40831019  .00000000  00000+0  00000-0 0  9997
2 58857  95.0000 252.0000 0000000   0.0000  72.0000 15.90815360    16
CTC1_L_00012022-04
1 58858U 24928EZ  26070.40831019  .00000000  00000+0  00000-0 0  9999
2 58858  95.0000 252.0000 0000000   0.0000 162.0000 15.90815360    17
CTC1_L_00012023-01
1 58859U 24499YS  26070.40831019  .00000000  00000+0  00000-0 0  9993
2 58859  95.0000 264.0000 0000000   0.0000 264.0000 15.90815360    14
CTC1_L_00012023-02
1 58860U 26945AZ  26070.40831019  .00000000  00000+0  00000-0 0  9993
2 58860  95.0000 264.0000 0000000   0.0000 354.0000 15.90815360    16
CTC1_L_00012023-03
1 58861U 24518JV  26070.40831019  .00000000  00000+0  00000-0 0  9998
2 58861  95.0000 264.0000 0000000   0.0000  84.0000 15.90815360    17
CTC1_L_00012023-04
1 58862U 26183PD  26070.40831019  .00000000  00000+0  00000-0 0  9999
2 58862  95.0000 264.0000 0000000   0.0000 174.0000 15.90815360    18
CTC1_L_00012024-01
1 58863U 22831XI  26070.40831019  .00000000  00000+0  00000-0 0  9996
2 58863  95.0000 276.0000 0000000   0.0000 276.0000 15.90815360    15
CTC1_L_00012024-02
1 58864U 25307AN  26070.40831019  .00000000  00000+0  00000-0 0  9998
2 58864  95.0000 276.0000 0000000   0.0000   6.0000 15.90815360    17
CTC1_L_00012024-03
1 58865U 26393JS  26070.40831019  .00000000  00000+0  00000-0 0  9995
2 58865  95.0000 276.0000 0000000   0.0000  96.0000 15.90815360    17
CTC1_L_00012024-04
1 58866U 23937BN  26070.40831019  .00000000  00000+0  00000-0 0  9997
2 58866  95.0000 276.0000 0000000   0.0000 186.0000 15.90815360    18
CTC1_L_00012025-01
1 58867U 22889NI  26070.40831019  .00000000  00000+0  00000-0 0  9993
2 58867  95.0000 288.0000 0000000   0.0000 288.0000 15.90815360    15
CTC1_L_00012025-02
1 58868U 22140WD  26070.40831019  .00000000  00000+0  00000-0 0  9994
2 58868  95.0000 288.0000 0000000   0.0000  18.0000 15.90815360    17
CTC1_L_00012025-03
1 58869U 22103QK  26070.40831019  .00000000  00000+0  00000-0 0  9994
2 58869  95.0000 288.0000 0000000   0.0000 108.0000 15.90815360    18
CTC1_L_00012025-04
1 58870U 22919PL  26070.40831019  .00000000  00000+0  00000-0 0  9991
2 58870  95.0000 288.0000 0000000   0.0000 198.0000 15.90815360    19
CTC1_L_00012026-01
1 58871U 26335VE  26070.40831019  .00000000  00000+0  00000-0 0  9998
2 58871  95.0000 300.0000 0000000   0.0000 300.0000 15.90815360    10
CTC1_L_00012026-02
1 58872U 25595W   26070.40831019  .00000000  00000+0  00000-0 0  9996
2 58872  95.0000 300.0000 0000000   0.0000  30.0000 15.90815360    11
CTC1_L_00012026-03
1 58873U 26842KD  26070.40831019  .00000000  00000+0  00000-0 0  9993
2 58873  95.0000 300.0000 0000000   0.0000 120.0000 15.90815360    12
CTC1_L_00012026-04
1 58874U 25255XG  26070.40831019  .00000000  00000+0  00000-0 0  9991
2 58874  95.0000 300.0000 0000000   0.0000 210.0000 15.90815360    13
CTC1_L_00012027-01
1 58875U 24502BD  26070.40831019  .00000000  00000+0  00000-0 0  9996
2 58875  95.0000 312.0000 0000000   0.0000 312.0000 15.90815360    10
CTC1_L_00012027-02
1 58876U 22937OJ  26070.40831019  .00000000  00000+0  00000-0 0  9997
2 58876  95.0000 312.0000 0000000   0.0000  42.0000 15.90815360    11
CTC1_L_00012027-03
1 58877U 24743NI  26070.40831019  .00000000  00000+0  00000-0 0  9995
2 58877  95.0000 312.0000 0000000   0.0000 132.0000 15.90815360    12
CTC1_L_00012027-04
1 58878U 23017HP  26070.40831019  .00000000  00000+0  00000-0 0  9999
2 58878  95.0000 312.0000 0000000   0.0000 222.0000 15.90815360    13
CTC1_L_00012028-01
1 58879U 22448YT  26070.40831019  .00000000  00000+0  00000-0 0  9997
2 58879  95.0000 324.0000 0000000   0.0000 324.0000 15.90815360    10
CTC1_L_00012028-02
1 58880U 22492PT  26070.40831019  .00000000  00000+0  00000-0 0  9998
2 58880  95.0000 324.0000 0000000   0.0000  54.0000 15.90815360    12
CTC1_L_00012028-03
1 58881U 23426KJ  26070.40831019  .00000000  00000+0  00000-0 0  9997
2 58881  95.0000 324.0000 0000000   0.0000 144.0000 15.90815360    13
CTC1_L_00012028-04
1 58882U 22509RM  26070.40831019  .00000000  00000+0  00000-0 0  9999
2 58882  95.0000 324.0000 0000000   0.0000 234.0000 15.90815360    14
CTC1_L_00012029-01
1 58883U 25857RK  26070.40831019  .00000000  00000+0  00000-0 0  9999
2 58883  95.0000 336.0000 0000000   0.0000 336.0000 15.90815360    11
CTC1_L_00012029-02
1 58884U 26418KD  26070.40831019  .00000000  00000+0  00000-0 0  9994
2 58884  95.0000 336.0000 0000000   0.0000  66.0000 15.90815360    12
CTC1_L_00012029-03
1 58885U 23476Y   26070.40831019  .00000000  00000+0  00000-0 0  9996
2 58885  95.0000 336.0000 0000000   0.0000 156.0000 15.90815360    13
CTC1_L_00012029-04
1 58886U 26008PN  26070.40831019  .00000000  00000+0  00000-0 0  9991
2 58886  95.0000 336.0000 0000000   0.0000 246.0000 15.90815360    14
CTC1_L_00012030-01
1 58887U 26525GS  26070.40831019  .00000000  00000+0  00000-0 0  9996
2 58887  95.0000 348.0000 0000000   0.0000 348.0000 15.90815360    11
CTC1_L_00012030-02
1 58888U 23963JG  26070.40831019  .00000000  00000+0  00000-0 0  9990
2 58888  95.0000 348.0000 0000000   0.0000  78.0000 15.90815360    12
CTC1_L_00012030-03
1 58889U 25096LB  26070.40831019  .00000000  00000+0  00000-0 0  9990
2 58889  95.0000 348.0000 0000000   0.0000 168.0000 15.90815360    13
CTC1_L_00012030-04
1 58890U 23977ED  26070.40831019  .00000000  00000+0  00000-0 0  9998
2 58890  95.0000 348.0000 0000000   0.0000 258.0000 15.90815360    15
